{
  "type": "FeatureCollection",
  "features": [
    {
      "type": "Feature",
      "properties": {
        "norad_id": 57400,
        "name": "TIANMU-1 08",
        "group": "weather",
        "lat": 19.865423866078835,
        "lon": 39.84308386380817,
        "alt_km": 478.06826322254983,
        "timestamp": "2025-12-18T23:35:48.689228+00:00",
        "meta_object_name": "TIANMU-1 08",
        "meta_object_id": "2023-101B",
        "meta_epoch": "2025-12-18T15:39:06.345792",
        "meta_mean_motion": 15.28136496,
        "meta_eccentricity": 0.0007325,
        "meta_inclination": 97.2861,
        "meta_ra_of_asc_node": 42.169,
        "meta_arg_of_pericenter": 67.2718,
        "meta_mean_anomaly": 292.9295,
        "meta_ephemeris_type": 0,
        "meta_classification_type": "U",
        "meta_norad_cat_id": 57400,
        "meta_element_set_no": 999,
        "meta_rev_at_epoch": 13405,
        "meta_bstar": 0.00020596311,
        "meta_mean_motion_dot": 5.58e-05,
        "meta_mean_motion_ddot": 0,
        "tle_line1": "1 57400U 23101B   25352.65215678  .00005580  00000+0  20596-3 0  9992",
        "tle_line2": "2 57400  97.2861  42.1690 0007325  67.2718 292.9295 15.28136496134057"
      },
      "geometry": {
        "type": "Point",
        "coordinates": [
          39.84308386380817,
          19.865423866078835
        ]
      }
    },
    {
      "type": "Feature",
      "properties": {
        "norad_id": 57401,
        "name": "TIANMU-1 09",
        "group": "weather",
        "lat": 81.88114946592756,
        "lon": -74.31509788516549,
        "alt_km": 469.79209024736065,
        "timestamp": "2025-12-18T23:35:48.689238+00:00",
        "meta_object_name": "TIANMU-1 09",
        "meta_object_id": "2023-101C",
        "meta_epoch": "2025-12-18T15:19:54.265728",
        "meta_mean_motion": 15.28169185,
        "meta_eccentricity": 0.00066036,
        "meta_inclination": 97.2818,
        "meta_ra_of_asc_node": 41.6664,
        "meta_arg_of_pericenter": 67.8116,
        "meta_mean_anomaly": 292.3824,
        "meta_ephemeris_type": 0,
        "meta_classification_type": "U",
        "meta_norad_cat_id": 57401,
        "meta_element_set_no": 999,
        "meta_rev_at_epoch": 13405,
        "meta_bstar": 0.00022571164,
        "meta_mean_motion_dot": 6.128e-05,
        "meta_mean_motion_ddot": 0,
        "tle_line1": "1 57401U 23101C   25352.63882252  .00006128  00000+0  22571-3 0  9993",
        "tle_line2": "2 57401  97.2818  41.6664 0006603  67.8116 292.3824 15.28169185134054"
      },
      "geometry": {
        "type": "Point",
        "coordinates": [
          -74.31509788516549,
          81.88114946592756
        ]
      }
    },
    {
      "type": "Feature",
      "properties": {
        "norad_id": 57402,
        "name": "TIANMU-1 10",
        "group": "weather",
        "lat": -81.30890374948916,
        "lon": 165.98930027599152,
        "alt_km": 494.0251341270405,
        "timestamp": "2025-12-18T23:35:48.689248+00:00",
        "meta_object_name": "TIANMU-1 10",
        "meta_object_id": "2023-101D",
        "meta_epoch": "2025-12-18T14:34:55.510752",
        "meta_mean_motion": 15.28160619,
        "meta_eccentricity": 0.00083096,
        "meta_inclination": 97.2898,
        "meta_ra_of_asc_node": 42.4917,
        "meta_arg_of_pericenter": 66.5894,
        "meta_mean_anomaly": 293.6219,
        "meta_ephemeris_type": 0,
        "meta_classification_type": "U",
        "meta_norad_cat_id": 57402,
        "meta_element_set_no": 999,
        "meta_rev_at_epoch": 13404,
        "meta_bstar": 0.0002319672,
        "meta_mean_motion_dot": 6.3e-05,
        "meta_mean_motion_ddot": 0,
        "tle_line1": "1 57402U 23101D   25352.60758693  .00006300  00000+0  23197-3 0  9999",
        "tle_line2": "2 57402  97.2898  42.4917 0008309  66.5894 293.6219 15.28160619134041"
      },
      "geometry": {
        "type": "Point",
        "coordinates": [
          165.98930027599152,
          -81.30890374948916
        ]
      }
    },
    {
      "type": "Feature",
      "properties": {
        "norad_id": 57490,
        "name": "FENGYUN 3F",
        "group": "weather",
        "lat": -74.00196068378975,
        "lon": -151.13698782119343,
        "alt_km": 833.4317897402898,
        "timestamp": "2025-12-18T23:35:48.689258+00:00",
        "meta_object_name": "FENGYUN 3F",
        "meta_object_id": "2023-111A",
        "meta_epoch": "2025-12-18T15:37:39.355680",
        "meta_mean_motion": 14.19895087,
        "meta_eccentricity": 7.256e-05,
        "meta_inclination": 98.7077,
        "meta_ra_of_asc_node": 60.849,
        "meta_arg_of_pericenter": 110.997,
        "meta_mean_anomaly": 249.1284,
        "meta_ephemeris_type": 0,
        "meta_classification_type": "U",
        "meta_norad_cat_id": 57490,
        "meta_element_set_no": 999,
        "meta_rev_at_epoch": 12324,
        "meta_bstar": 5.3008185e-05,
        "meta_mean_motion_dot": 6.9e-07,
        "meta_mean_motion_ddot": 0,
        "tle_line1": "1 57490U 23111A   25352.65114995  .00000069  00000+0  53008-4 0  9994",
        "tle_line2": "2 57490  98.7077  60.8490 0000725 110.9970 249.1284 14.19895087123247"
      },
      "geometry": {
        "type": "Point",
        "coordinates": [
          -151.13698782119343,
          -74.00196068378975
        ]
      }
    },
    {
      "type": "Feature",
      "properties": {
        "norad_id": 58584,
        "name": "ARKTIKA-M 2",
        "group": "weather",
        "lat": 61.05253086891818,
        "lon": -119.81799539597189,
        "alt_km": 37111.22708155337,
        "timestamp": "2025-12-18T23:35:48.689270+00:00",
        "meta_object_name": "ARKTIKA-M 2",
        "meta_object_id": "2023-198A",
        "meta_epoch": "2025-12-17T19:31:00.124032",
        "meta_mean_motion": 2.0060326,
        "meta_eccentricity": 0.68652638,
        "meta_inclination": 63.225,
        "meta_ra_of_asc_node": 174.3391,
        "meta_arg_of_pericenter": 268.0846,
        "meta_mean_anomaly": 18.8392,
        "meta_ephemeris_type": 0,
        "meta_classification_type": "U",
        "meta_norad_cat_id": 58584,
        "meta_element_set_no": 999,
        "meta_rev_at_epoch": 1468,
        "meta_bstar": 0,
        "meta_mean_motion_dot": 2.02e-06,
        "meta_mean_motion_ddot": 0,
        "tle_line1": "1 58584U 23198A   25351.81319588  .00000202  00000+0  00000+0 0  9994",
        "tle_line2": "2 58584  63.2250 174.3391 6865263 268.0846  18.8392  2.00603260 14687"
      },
      "geometry": {
        "type": "Point",
        "coordinates": [
          -119.81799539597189,
          61.05253086891818
        ]
      }
    },
    {
      "type": "Feature",
      "properties": {
        "norad_id": 58645,
        "name": "TIANMU-1 11",
        "group": "weather",
        "lat": 6.152708811030508,
        "lon": 11.698771151474205,
        "alt_km": 493.29567010729625,
        "timestamp": "2025-12-18T23:35:48.689282+00:00",
        "meta_object_name": "TIANMU-1 11",
        "meta_object_id": "2023-205A",
        "meta_epoch": "2025-12-18T15:41:38.857344",
        "meta_mean_motion": 15.24669964,
        "meta_eccentricity": 0.00076087,
        "meta_inclination": 97.3597,
        "meta_ra_of_asc_node": 12.1736,
        "meta_arg_of_pericenter": 285.4761,
        "meta_mean_anomaly": 74.5636,
        "meta_ephemeris_type": 0,
        "meta_classification_type": "U",
        "meta_norad_cat_id": 58645,
        "meta_element_set_no": 999,
        "meta_rev_at_epoch": 10999,
        "meta_bstar": 0.0002014326,
        "meta_mean_motion_dot": 4.909e-05,
        "meta_mean_motion_ddot": 0,
        "tle_line1": "1 58645U 23205A   25352.65392196  .00004909  00000+0  20143-3 0  9992",
        "tle_line2": "2 58645  97.3597  12.1736 0007608 285.4761  74.5636 15.24669964109995"
      },
      "geometry": {
        "type": "Point",
        "coordinates": [
          11.698771151474205,
          6.152708811030508
        ]
      }
    },
    {
      "type": "Feature",
      "properties": {
        "norad_id": 58646,
        "name": "TIANMU-1 12",
        "group": "weather",
        "lat": -35.558148380518006,
        "lon": -172.99988383171157,
        "alt_km": 495.80532440697243,
        "timestamp": "2025-12-18T23:35:48.689292+00:00",
        "meta_object_name": "TIANMU-1 12",
        "meta_object_id": "2023-205B",
        "meta_epoch": "2025-12-18T13:12:04.396032",
        "meta_mean_motion": 15.24554009,
        "meta_eccentricity": 0.00057635,
        "meta_inclination": 97.3585,
        "meta_ra_of_asc_node": 11.8751,
        "meta_arg_of_pericenter": 264.9053,
        "meta_mean_anomaly": 95.1527,
        "meta_ephemeris_type": 0,
        "meta_classification_type": "U",
        "meta_norad_cat_id": 58646,
        "meta_element_set_no": 999,
        "meta_rev_at_epoch": 10996,
        "meta_bstar": 0.00022992511,
        "meta_mean_motion_dot": 5.593e-05,
        "meta_mean_motion_ddot": 0,
        "tle_line1": "1 58646U 23205B   25352.55005088  .00005593  00000+0  22993-3 0  9998",
        "tle_line2": "2 58646  97.3585  11.8751 0005763 264.9053  95.1527 15.24554009109960"
      },
      "geometry": {
        "type": "Point",
        "coordinates": [
          -172.99988383171157,
          -35.558148380518006
        ]
      }
    }
  ]
}